H1 CPF  1  MCC 2022  1 18 14  5181 larets
H2  0304206 5557    27944 2022 01 17 23 55 00 2022 01 23 00 07 00   180 1 1  0 0 0
H9
10 0 59601 45780.000000 0       667939.240      1294991.146      6898668.453
10 0 59601 45960.000000 0      1939301.237      1667782.327      6573115.063
10 0 59601 46140.000000 0      3148712.923      1947362.034      6006797.152
10 0 59601 46320.000000 0      4249673.983      2125818.965      5220514.067
10 0 59601 46500.000000 0      5199489.398      2200085.404      4243089.098
10 0 59601 46680.000000 0      5960954.059      2171932.110      3110336.244
10 0 59601 46860.000000 0      6503849.754      2047745.277      1863752.489
10 0 59601 47040.000000 0      6806178.720      1838097.615       548989.010
10 0 59601 47220.000000 0      6855076.919      1557132.710      -785848.304
10 0 59601 47400.000000 0      6647353.493      1221795.731     -2091995.498
10 0 59601 47580.000000 0      6189634.758       850946.485     -3321840.761
10 0 59601 47760.000000 0      5498109.538       464405.110     -4430675.108
10 0 59601 47940.000000 0      4597891.040        81981.897     -5378307.141
10 0 59601 48120.000000 0      3522041.274      -277461.517     -6130477.493
10 0 59601 48300.000000 0      2310315.039      -596875.611     -6660037.782
10 0 59601 48480.000000 0      1007675.018      -861777.945     -6947865.320
10 0 59601 48660.000000 0      -337359.731     -1060872.225     -6983500.409
10 0 59601 48840.000000 0     -1674483.551     -1186509.751     -6765501.376
10 0 59601 49020.000000 0     -2953440.460     -1234981.000     -6301513.560
10 0 59601 49200.000000 0     -4125876.153     -1206627.724     -5608046.460
10 0 59601 49380.000000 0     -5147156.850     -1105772.786     -4709964.089
10 0 59601 49560.000000 0     -5978100.909      -940466.511     -3639676.999
10 0 59601 49740.000000 0     -6586550.447      -722055.596     -2436043.061
10 0 59601 49920.000000 0     -6948709.464      -464587.473     -1142995.215
10 0 59601 50100.000000 0     -7050173.243      -184074.775       192064.520
10 0 59601 50280.000000 0     -6886577.448       102349.197      1520046.341
10 0 59601 50460.000000 0     -6463824.459       377335.173      2792042.081
10 0 59601 50640.000000 0     -5797870.083       624233.851      3961200.979
10 0 59601 50820.000000 0     -4914075.342       827974.125      4984517.569
10 0 59601 51000.000000 0     -3846166.568       975854.151      5824445.040
10 0 59601 51180.000000 0     -2634869.219      1058205.578      6450272.174
10 0 59601 51360.000000 0     -1326283.158      1068900.399      6839223.815
10 0 59601 51540.000000 0        29928.229      1005681.123      6977248.219
10 0 59601 51720.000000 0      1382450.518       870300.694      6859478.987
10 0 59601 51900.000000 0      2680267.008       668470.073      6490377.825
10 0 59601 52080.000000 0      3874584.921       409616.583      5883558.793
10 0 59601 52260.000000 0      4920679.195       106461.058      5061296.584
10 0 59601 52440.000000 0      5779587.524      -225571.541      4053728.693
10 0 59601 52620.000000 0      6419597.499      -569083.738      2897770.397
10 0 59601 52800.000000 0      6817462.217      -905546.348      1635766.605
10 0 59601 52980.000000 0      6959279.695     -1216212.196       313927.070
10 0 59601 53160.000000 0      6840999.233     -1483057.284     -1019392.414
10 0 59601 53340.000000 0      6468521.208     -1689700.619     -2315497.231
10 0 59601 53520.000000 0      5857385.768     -1822253.687     -3527162.220
10 0 59601 53700.000000 0      5032075.090     -1870057.296     -4610361.035
10 0 59601 53880.000000 0      4024976.154     -1826269.899     -5525847.761
10 0 59601 54060.000000 0      2875059.086     -1688284.532     -6240535.834
10 0 59601 54240.000000 0      1626340.020     -1457957.230     -6728630.330
10 0 59601 54420.000000 0       326197.316     -1141639.172     -6972496.574
10 0 59601 54600.000000 0      -976401.326      -750016.147     -6963247.865
10 0 59601 54780.000000 0     -2232701.734      -297759.623     -6701049.931
10 0 59601 54960.000000 0     -3395948.131       197003.897     -6195137.305
10 0 59601 55140.000000 0     -4423097.110       713390.586     -5463540.444
10 0 59601 55320.000000 0     -5276419.366      1228605.593     -4532522.712
10 0 59601 55500.000000 0     -5924934.125      1718914.400     -3435721.847
10 0 59601 55680.000000 0     -6345613.076      2160705.278     -2212999.312
10 0 59601 55860.000000 0     -6524290.842      2531591.782      -909023.579
10 0 59601 56040.000000 0     -6456228.455      2811503.952       428371.039
10 0 59601 56220.000000 0     -6146283.474      2983707.092      1749987.893
10 0 59601 56400.000000 0     -5608665.175      3035691.676      3007147.694
10 0 59601 56580.000000 0     -4866286.753      2959881.848      4153553.576
10 0 59601 56760.000000 0     -3949750.272      2754121.652      5147052.988
10 0 59601 56940.000000 0     -2896024.802      2421916.992      5951213.139
10 0 59601 57120.000000 0     -1746891.305      1972427.213      6536654.981
10 0 59601 57300.000000 0      -547227.377      1420206.052      6882097.380
10 0 59601 57480.000000 0       656780.827       784707.740      6975083.257
10 0 59601 57660.000000 0      1819428.632        89582.173      6812387.504
10 0 59601 57840.000000 0      2897228.949      -638215.166      6400104.739
10 0 59601 58020.000000 0      3850539.996     -1369471.747      5753419.442
10 0 59601 58200.000000 0      4645034.178     -2073889.449      4896059.338
10 0 59601 58380.000000 0      5252953.470     -2721337.231      3859444.664
10 0 59601 58560.000000 0      5654109.932     -3283137.098      2681554.904
10 0 59601 58740.000000 0      5836582.526     -3733326.757      1405536.641
10 0 59601 58920.000000 0      5797074.670     -4049839.113        78107.827
10 0 59601 59100.000000 0      5540917.238     -4215538.923     -1252182.578
10 0 59601 59280.000000 0      5081714.797     -4219061.737     -2536766.650
10 0 59601 59460.000000 0      4440653.453     -4055411.454     -3728858.124
10 0 59601 59640.000000 0      3645512.457     -3726291.750     -4785162.242
10 0 59601 59820.000000 0      2729435.771     -3240158.817     -5667426.294
10 0 59601 60000.000000 0      1729531.087     -2612000.813     -6343774.482
10 0 59601 60180.000000 0       685366.262     -1862864.536     -6789796.170
10 0 59601 60360.000000 0      -362582.360     -1019143.532     -6989368.767
10 0 59601 60540.000000 0     -1374469.617      -111657.058     -6935192.886
10 0 59601 60720.000000 0     -2312560.872       825447.861     -6629044.435
10 0 59601 60900.000000 0     -3142612.138      1755945.003     -6081739.695
10 0 59601 61080.000000 0     -3835111.008      2642895.813     -5312813.635
10 0 59601 61260.000000 0     -4366348.825      3450099.462     -4349905.976
10 0 59601 61440.000000 0     -4719279.663      4143576.221     -3227844.903
10 0 59601 61620.000000 0     -4884121.291      4693022.119     -1987446.762
10 0 59601 61800.000000 0     -4858669.092      5073167.233      -674058.328
10 0 59601 61980.000000 0     -4648297.225      5264966.934       664115.369
10 0 59601 62160.000000 0     -4265631.451      5256553.925      1977832.901
10 0 59601 62340.000000 0     -3729905.480      5043889.274      3218703.400
10 0 59601 62520.000000 0     -3066027.772      4631072.302      4341040.780
10 0 59601 62700.000000 0     -2303419.237      4030299.324      5303595.223
10 0 59601 62880.000000 0     -1474685.595      3261474.831      6071092.169
10 0 59601 63060.000000 0      -614193.541      2351497.671      6615515.354
10 0 59601 63240.000000 0       243375.068      1333265.063      6917092.387
10 0 59601 63420.000000 0      1064429.041       244444.077      6964969.483
10 0 59601 63600.000000 0      1817784.920      -873943.805      6757564.152
10 0 59601 63780.000000 0      2475848.589     -1979076.933      6302598.041
10 0 59601 63960.000000 0      3015626.398     -3027978.106      5616810.234
10 0 59601 64140.000000 0      3419534.070     -3979194.135      4725355.747
10 0 59601 64320.000000 0      3675974.306     -4794449.437      3660902.735
10 0 59601 64500.000000 0      3779663.480     -5440209.979      2462448.671
10 0 59601 64680.000000 0      3731690.275     -5889086.861      1173889.606
10 0 59601 64860.000000 0      3539303.103     -6121010.945      -157606.145
10 0 59601 65040.000000 0      3215439.026     -6124120.400     -1483353.311
10 0 59601 65220.000000 0      2778014.633     -5895316.805     -2754966.035
10 0 59601 65400.000000 0      2249016.348     -5440458.824     -3926149.055
10 0 59601 65580.000000 0      1653439.751     -4774188.457     -4954388.617
10 0 59601 65760.000000 0      1018136.491     -3919405.448     -5802467.110
10 0 59601 65940.000000 0       370631.978     -2906431.467     -6439756.548
10 0 59601 66120.000000 0      -262039.002     -1771905.345     -6843259.609
10 0 59601 66300.000000 0      -854430.851      -557455.184     -6998378.468
10 0 59601 66480.000000 0     -1383681.014       691806.045     -6899403.032
10 0 59601 66660.000000 0     -1830372.454      1928914.753     -6549712.556
10 0 59601 66840.000000 0     -2179238.138      3106777.670     -5961691.653
10 0 59601 67020.000000 0     -2419689.416      4179937.880     -5156358.640
10 0 59601 67200.000000 0     -2546150.805      5106335.218     -4162696.710
10 0 59601 67380.000000 0     -2558185.181      5848994.903     -3016684.899
10 0 59601 67560.000000 0     -2460395.467      6377566.756     -1760048.378
10 0 59601 67740.000000 0     -2262103.911      6669646.252      -438759.466
10 0 59601 67920.000000 0     -1976819.155      6711797.410       898663.053
10 0 59601 68100.000000 0     -1621512.385      6500220.659      2202993.001
10 0 59601 68280.000000 0     -1215731.975      6040997.287      3426189.377
10 0 59601 68460.000000 0      -780612.477      5349905.801      4523230.094
10 0 59601 68640.000000 0      -337834.610      4451831.463      5453816.149
99
